MEAN_MOTION;ECCENTRICITY;INCLINATION;RA_OF_ASC_NODE;ARG_OF_PERICENTER;MEAN_ANOMALY;BSTAR;MEAN_MOTION_DOT;MEAN_MOTION_DDOT;TYPE
1.00271566;0.0003463;4.7769;68.1677;288.5474;208.1255;0;-1.9E-7;0;Intelsat
1.00271569;0.0003477;4.7774;68.1667;289.168;292.6055;0;-2.0E-7;0;Intelsat
1.00271613;0.0003515;4.7791;68.1633;290.3924;210.5974;0;-2.2E-7;0;Intelsat
1.00271628;0.0003523;4.7795;68.1623;291.0613;293.5014;0;-2.3E-7;0;Intelsat
1.00271666;0.0003551;4.7806;68.1602;292.022;113.9658;0;-2.4E-7;0;Intelsat
1.00271756;0.0003582;4.7825;68.1565;294.0826;62.899;0;-2.6E-7;0;Intelsat
1.00271765;0.0003585;4.7826;68.1563;294.1603;77.3937;0;-2.7E-7;0;Intelsat
1.00271919;0.0003617;4.7848;68.1519;296.528;63.2524;0;-2.8E-7;0;Intelsat
1.00271933;0.0003622;4.7849;68.1517;296.6503;82.1834;0;-2.8E-7;0;Intelsat
1.00271949;0.0003626;4.785;68.1513;296.773;106.8302;0;-2.8E-7;0;Intelsat
1.00272131;0.0003647;4.787;68.1475;298.9998;63.5877;0;-2.9E-7;0;Intelsat
1.00272245;0.0003662;4.7879;68.1454;300.0983;220.1427;0;-2.9E-7;0;Intelsat
1.00272462;0.0003683;4.7896;68.1418;302.0078;141.8812;0;-2.9E-7;0;Intelsat
1.00272505;0.0003684;4.79;68.1412;302.3691;192.6143;0;-2.9E-7;0;Intelsat
1.00272776;0.0003698;4.7918;68.1373;304.4469;142.0811;0;-2.9E-7;0;Intelsat
1.0027282;0.0003699;4.7921;68.1367;304.7975;192.9652;0;-2.9E-7;0;Intelsat
1.00273131;0.0003706;4.794;68.1322;306.9325;158.1421;0;-2.8E-7;0;Intelsat
1.00273163;0.0003706;4.7942;68.1318;307.1412;193.4468;0;-2.8E-7;0;Intelsat
1.00276683;0.0003639;4.7955;68.127;301.2231;98.5183;0;-2.8E-7;0;Intelsat
1.0027088;0.0003712;4.7967;68.1251;307.3088;273.8439;0;-2.7E-7;0;Intelsat
1.00271342;0.0003717;4.7983;68.1204;309.0655;197.1364;0;-2.7E-7;0;Intelsat
1.00271396;0.0003711;4.7987;68.1188;309.0933;274.8608;0;-2.6E-7;0;Intelsat
1.00271671;0.0003694;4.8004;68.1144;310.8011;198.6237;0;-2.6E-7;0;Intelsat
1.00271845;0.0003686;4.8015;68.1108;311.5903;44.7469;0;-2.5E-7;0;Intelsat
1.0027187;0.0003678;4.8017;68.1106;311.5624;70.6862;0;-2.5E-7;0;Intelsat
1.00271964;0.0003662;4.8023;68.1086;312.1825;186.4101;0;-2.5E-7;0;Intelsat
1.00272147;0.000365;4.8036;68.1047;312.9543;72.1098;0;-2.4E-7;0;Intelsat
1.00272147;0.000365;4.8036;68.1047;312.9543;72.1098;0;-2.4E-7;0;Intelsat
1.0027224;0.0003632;4.8043;68.1024;313.4905;205.8816;0;-2.4E-7;0;Intelsat
1.00272394;0.0003621;4.8055;68.0986;314.0147;73.8035;0;-2.3E-7;0;Intelsat
1.00272475;0.0003601;4.8062;68.0964;314.4239;202.9902;0;-2.2E-7;0;Intelsat
1.00272681;0.0003572;4.8081;68.0904;315.1269;194.3662;0;-2.1E-7;0;Intelsat
1.00272705;0.000357;4.8083;68.0894;315.3011;244.0361;0;-2.0E-7;0;Intelsat
1.00272868;0.0003546;4.8099;68.0839;315.8466;198.5359;0;-1.9E-7;0;Intelsat
1.00272967;0.000354;4.8111;68.0799;316.2699;54.0803;0;-1.7E-7;0;Intelsat
1.00273035;0.0003524;4.8119;68.0772;316.376;209.4779;0;-1.6E-7;0;Intelsat
1.00273113;0.0003517;4.8129;68.0735;316.7153;56.4387;0;-1.5E-7;0;Intelsat
1.00273171;0.0003506;4.8137;68.071;316.663;203.7943;0;-1.4E-7;0;Intelsat
1.00273291;0.0003498;4.8155;68.0649;317.0104;188.5537;0;-1.2E-7;0;Intelsat
1.00273309;0.0003493;4.8159;68.0634;317.0742;266.2149;0;-1.1E-7;0;Intelsat
1.00273398;0.0003492;4.8174;68.0587;317.1917;191.1873;0;-1.0E-7;0;Intelsat
1.00273451;0.0003485;4.8187;68.0547;317.4675;64.1403;0;-9.0E-8;0;Intelsat
1.00273492;0.0003494;4.8194;68.0526;317.3953;201.2187;0;-8.0E-8;0;Intelsat
1.00273522;0.0003489;4.8205;68.0492;317.6023;40.9101;0;-8.0E-8;0;Intelsat
1.00273545;0.0003495;4.8209;68.0478;317.6305;121.7835;0;-7.0E-8;0;Intelsat
1.00273561;0.0003505;4.8213;68.0468;317.5793;196.4216;0;-8.0E-8;0;Intelsat
1.0027063;0.0003553;4.8232;68.0422;315.4502;174.3807;0;-6.0E-8;0;Intelsat
1.00270517;0.0003559;4.8233;68.0419;315.5906;198.3087;0;-7.0E-8;0;Intelsat
1.00271103;0.0003585;4.8254;68.0361;315.304;204.3007;0;-8.0E-8;0;Intelsat
1.00271118;0.0003595;4.8257;68.0352;315.3416;256.0661;0;-7.0E-8;0;Intelsat
1.00271138;0.0003621;4.8274;68.031;315.8949;197.9759;0;-9.0E-8;0;Intelsat
1.0027113;0.000364;4.8279;68.0298;316.1442;276.6924;0;-9.0E-8;0;Intelsat
1.00271154;0.0003675;4.8296;68.0262;316.9468;205.8199;0;-1.1E-7;0;Intelsat
1.00271169;0.0003711;4.8312;68.0229;317.5388;116.7115;0;-1.3E-7;0;Intelsat
1.00271186;0.0003732;4.8317;68.0222;317.9106;210.1143;0;-1.4E-7;0;Intelsat
1.00271232;0.0003792;4.8337;68.0183;318.929;185.9798;0;-1.7E-7;0;Intelsat
1.00271237;0.0003798;4.8339;68.0182;319.0408;211.785;0;-1.7E-7;0;Intelsat
1.00271305;0.0003862;4.8359;68.0146;320.4229;187.2982;0;-2.0E-7;0;Intelsat
1.00271409;0.0003934;4.838;68.0107;322.117;188.3913;0;-2.2E-7;0;Intelsat
1.0027142;0.0003939;4.8382;68.0106;322.3071;218.3248;0;-2.2E-7;0;Intelsat
1.00271559;0.0004002;4.8402;68.0068;323.9421;189.3808;0;-2.4E-7;0;Intelsat
1.00271566;0.0004003;4.8403;68.0067;324.0403;204.3383;0;-2.4E-7;0;Intelsat
1.00271752;0.0004065;4.8423;68.0028;325.8283;190.2876;0;-2.5E-7;0;Intelsat
1.00272001;0.0004125;4.8445;67.9988;327.8399;191.1013;0;-2.5E-7;0;Intelsat
1.00272177;0.0004159;4.8459;67.9964;329.1581;63.0071;0;-2.5E-7;0;Intelsat
1.00272323;0.000418;4.847;67.9941;330.1907;243.3654;0;-2.4E-7;0;Intelsat
1.00272604;0.0004225;4.8488;67.9904;331.9171;194.4797;0;-2.4E-7;0;Intelsat
1.00272641;0.0004224;4.8491;67.9898;332.1449;244.224;0;-2.4E-7;0;Intelsat
1.00272945;0.0004259;4.8509;67.9858;333.8594;197.4807;0;-2.4E-7;0;Intelsat
1.00272983;0.0004257;4.8512;67.9851;334.0551;245.124;0;-2.3E-7;0;Intelsat
1.00273282;0.0004279;4.853;67.9808;335.6745;194.4919;0;-2.3E-7;0;Intelsat
1.00273322;0.0004278;4.8532;67.98;335.8562;246.1346;0;-2.3E-7;0;Intelsat
1.0027361;0.0004287;4.855;67.9756;337.4138;195.8408;0;-2.2E-7;0;Intelsat
1.00273646;0.0004285;4.8553;67.9747;337.564;247.2472;0;-2.2E-7;0;Intelsat
1.00273779;0.0004285;4.8561;67.9724;338.2468;42.0395;0;-2.2E-7;0;Intelsat
1.00269407;0.0004188;4.8578;67.9674;337.9551;225.0276;0;-2.0E-7;0;Intelsat
1.00271265;0.0004248;4.8585;67.9667;337.0133;46.0812;0;-2.0E-7;0;Intelsat
1.00271449;0.000423;4.8591;67.9644;338.0153;193.9702;0;-2.0E-7;0;Intelsat
1.0027162;0.0004216;4.8602;67.9618;338.6054;47.2949;0;-1.9E-7;0;Intelsat
1.00271709;0.0004197;4.861;67.9593;339.2817;206.215;0;-1.8E-7;0;Intelsat
1.00271728;0.0004196;4.8611;67.9591;339.3507;227.9446;0;-1.8E-7;0;Intelsat
1.00271919;0.0004163;4.8627;67.9543;340.2383;172.2148;0;-1.7E-7;0;Intelsat
1.00271954;0.0004161;4.863;67.9534;340.455;229.6397;0;-1.6E-7;0;Intelsat
1.00272168;0.0004121;4.8649;67.9481;341.0646;216.0615;0;-1.5E-7;0;Intelsat
1.00272189;0.0004122;4.8652;67.9474;341.2712;270.2041;0;-1.4E-7;0;Intelsat
1.00272312;0.0004087;4.8664;67.9435;341.552;156.4515;0;-1.3E-7;0;Intelsat
1.00272983;0.0003606;4.8677;67.9387;327.8039;69.3597;0;-1.1E-7;0;Intelsat
1.00271982;0.0003662;4.8684;67.9375;326.7103;200.0051;0;-1.0E-7;0;Intelsat
1.0027211;0.0003642;4.8696;67.9338;326.1953;73.7725;0;-8.0E-8;0;Intelsat
1.00272217;0.000362;4.8703;67.932;326.1304;203.3574;0;-8.0E-8;0;Intelsat
1.00272275;0.0003599;4.8716;67.928;326.2723;76.4392;0;-6.0E-8;0;Intelsat
1.00272344;0.0003584;4.8722;67.926;325.9985;206.298;0;-6.0E-8;0;Intelsat
1.00272348;0.0003562;4.8733;67.9232;327.1627;52.4417;0;-5.0E-8;0;Intelsat
1.00272394;0.0003555;4.874;67.9213;327.1105;182.0846;0;-4.0E-8;0;Intelsat
1.00272402;0.0003552;4.8742;67.9209;327.1256;207.987;0;-4.0E-8;0;Intelsat
1.00272454;0.000353;4.8756;67.9171;327.3857;108.8288;0;-3.0E-8;0;Intelsat
1.00272477;0.000353;4.876;67.9161;327.384;184.6014;0;-2.0E-8;0;Intelsat
1.00272483;0.0003529;4.8761;67.9158;327.3875;206.6;0;-3.0E-8;0;Intelsat
1.00272514;0.0003511;4.8773;67.9128;327.5225;57.7145;0;-2.0E-8;0;Intelsat
1.00272554;0.0003517;4.8781;67.9108;327.4973;210.7971;0;-2.0E-8;0;Intelsat
1.00272563;0.0003514;4.8786;67.9095;327.5269;298.9974;0;-2.0E-8;0;Intelsat
1.00272608;0.0003517;4.8802;67.9063;327.5904;215.9252;0;-2.0E-8;0;Intelsat
1.00272613;0.0003509;4.8812;67.9041;327.7543;36.0131;0;-3.0E-8;0;Intelsat
1.00271016;0.0003444;4.8823;67.9018;327.1041;245.1143;0;-3.0E-8;0;Intelsat
1.00271098;0.0003462;4.8842;67.8985;327.1935;196.0241;0;-5.0E-8;0;Intelsat
1.00271064;0.0003477;4.8845;67.8978;327.4896;261.8027;0;-5.0E-8;0;Intelsat
1.00271138;0.0003528;4.8879;67.8912;328.4668;131.3503;0;-1.0E-7;0;Intelsat
1.00271213;0.0003591;4.8905;67.8879;329.9938;201.6004;0;-1.3E-7;0;Intelsat
1.00271219;0.0003597;4.8906;67.8878;330.1349;227.3763;0;-1.4E-7;0;Intelsat
1.00271236;0.0003621;4.8917;67.8861;330.8744;48.0558;0;-1.5E-7;0;Intelsat
1.00271309;0.0003647;4.8927;67.8844;331.6668;220.3822;0;-1.6E-7;0;Intelsat
1.00271319;0.0003653;4.8928;67.884;331.9469;257.3161;0;-1.6E-7;0;Intelsat
1.0027135;0.0003674;4.8937;67.8827;332.5914;49.1402;0;-1.8E-7;0;Intelsat
1.00271443;0.0003698;4.8947;67.881;333.5077;223.1434;0;-1.8E-7;0;Intelsat
1.00271516;0.0003726;4.8958;67.8792;334.3451;50.1952;0;-1.9E-7;0;Intelsat
1.00271626;0.0003748;4.8968;67.8774;335.2943;226.5909;0;-2.0E-7;0;Intelsat
1.00271725;0.0003775;4.8979;67.8756;336.1917;51.1262;0;-2.0E-7;0;Intelsat
1.0027185;0.0003794;4.8989;67.8737;337.1441;224.9093;0;-2.0E-7;0;Intelsat
1.00271982;0.0003821;4.9;67.8718;338.0884;52.0271;0;-2.0E-7;0;Intelsat
1.00272084;0.0003838;4.9007;67.8703;338.8172;180.9074;0;-2.0E-7;0;Intelsat
1.00272258;0.0003858;4.902;67.8678;340.2298;52.719;0;-2.0E-7;0;Intelsat
1.00272389;0.0003872;4.9029;67.8658;341.1263;207.2949;0;-2.0E-7;0;Intelsat
1.0027257;0.000389;4.9041;67.8634;342.2693;53.4568;0;-2.0E-7;0;Intelsat
1.00272713;0.0003899;4.905;67.8613;343.16;217.8584;0;-2.0E-7;0;Intelsat
1.00272897;0.000391;4.9061;67.8588;344.2373;54.3269;0;-1.9E-7;0;Intelsat
1.00273046;0.0003914;4.907;67.8566;345.1291;221.8931;0;-1.9E-7;0;Intelsat
1.00270886;0.0003795;4.9089;67.8523;345.2656;185.6514;0;-1.8E-7;0;Intelsat
1.00270869;0.0003793;4.9091;67.8515;345.7281;211.1064;0;-1.8E-7;0;Intelsat
1.00271096;0.0003782;4.9102;67.8492;346.6035;57.5375;0;-1.8E-7;0;Intelsat
1.00271211;0.0003778;4.9109;67.8473;347.4534;186.2623;0;-1.7E-7;0;Intelsat
1.0027122;0.0003777;4.911;67.8468;347.8259;211.8072;0;-1.8E-7;0;Intelsat
1.00271528;0.0003749;4.9128;67.8419;349.385;187.1452;0;-1.7E-7;0;Intelsat
1.0027172;0.000373;4.9139;67.8389;349.747;34.0885;0;-1.6E-7;0;Intelsat
